     2.11           N: GPS NAV DATA                         RINEX VERSION / TYPE
teqc  2016Apr1      IGN                 20240213 16:12:07UTCPGM / RUN BY / DATE
    18                                                      LEAP SECONDS
    2.6077D-08  7.4506D-09 -1.1921D-07  1.1921D-07          ION ALPHA
    1.3926D+05 -8.1920D+04  6.5536D+04 -4.5875D+05          ION BETA
   -9.313225746155D-10 3.552713678801D-15   405504     2301 DELTA-UTC: A0,A1,T,W
                                                            END OF HEADER
16 24  2 13 16  0  0.0-3.634626045823D-04 8.299139153678D-12 0.000000000000D+00
    9.800000000000D+01 7.487500000000D+01 4.929848085311D-09 7.637778872833D-01
    4.198402166367D-06 1.399687130470D-02 5.949288606644D-06 5.153729160309D+03
    2.304000000000D+05-1.080334186554D-07 1.893205477573D+00 8.754432201385D-08
    9.623324128706D-01 2.655937500000D+02 8.258843246886D-01-8.617501379149D-09
    1.467918286924D-10 1.000000000000D+00 2.301000000000D+03 0.000000000000D+00
    2.800000000000D+00 0.000000000000D+00-1.024454832077D-08 9.800000000000D+01
    2.244600000000D+05
23 24  2 13 16  0  0.0 1.554084010422D-04 8.071765478235D-12 0.000000000000D+00
    7.800000000000D+01 5.043750000000D+01 4.341609294300D-09 2.934263084544D+00
    2.732500433922D-06 3.974080202170D-03 6.297603249550D-06 5.153701322556D+03
    2.304000000000D+05-2.421438694000D-08-1.364265923563D+00-1.676380634308D-08
    9.773958506546D-01 2.657812500000D+02-2.965421459261D+00-8.104623638872D-09
    5.389509949438D-10 1.000000000000D+00 2.301000000000D+03 0.000000000000D+00
    2.000000000000D+00 0.000000000000D+00-8.381903171539D-09 5.900000000000D+02
    2.264700000000D+05
27 24  2 13 16  0  0.0-3.703869879246D-06-3.410605131648D-12 0.000000000000D+00
    1.240000000000D+02-4.753125000000D+01 4.873417225326D-09-1.127362678495D-01
   -2.399086952209D-06 1.237560261507D-02 5.094334483147D-06 5.153671131134D+03
    2.304000000000D+05 3.911554813385D-08 2.846990010367D+00 1.918524503708D-07
    9.638742612319D-01 2.805625000000D+02 7.585684462435D-01-8.638217252610D-09
   -4.803771269657D-10 1.000000000000D+00 2.301000000000D+03 0.000000000000D+00
    2.000000000000D+00 0.000000000000D+00 1.862645149231D-09 1.240000000000D+02
    2.267100000000D+05
 9 24  2 13 16  0  0.0 9.093526750803D-05 1.261923898710D-11 0.000000000000D+00
    3.100000000000D+01-7.043750000000D+01 4.890560854347D-09 2.231266090446D-01
   -3.784894943237D-06 2.785046584904D-03 5.505979061127D-06 5.153721193314D+03
    2.304000000000D+05 1.303851604462D-08-3.122391052120D-01-1.303851604462D-08
    9.580861731862D-01 2.696250000000D+02 2.017872335362D+00-8.442137363193D-09
   -2.417957860507D-10 1.000000000000D+00 2.301000000000D+03 0.000000000000D+00
    2.000000000000D+00 0.000000000000D+00 1.396983861923D-09 3.100000000000D+01
    2.232180000000D+05 4.000000000000D+00
 3 24  2 13 16  0  0.0 1.907967962325D-04 2.432898327243D-11 0.000000000000D+00
    1.050000000000D+02 3.787500000000D+01 4.178388332360D-09 2.847263748672D+00
    1.993030309677D-06 5.100765032694D-03 6.390735507011D-06 5.153773910522D+03
    2.304000000000D+05 3.166496753693D-08-1.333190834235D+00-6.519258022308D-08
    9.825722546155D-01 2.666562500000D+02 1.068372263913D+00-7.942473693053D-09
    4.700195782020D-10 1.000000000000D+00 2.301000000000D+03 0.000000000000D+00
    2.800000000000D+00 0.000000000000D+00 1.862645149231D-09 1.050000000000D+02
    2.232180000000D+05 4.000000000000D+00
 8 24  2 13 16  0  0.0-1.668455079198D-04-1.818989403546D-12 0.000000000000D+00
    7.300000000000D+01-4.628125000000D+01 5.033423948025D-09-2.250395265767D-01
   -2.466142177582D-06 9.341505938210D-03 4.701316356659D-06 5.153583240509D+03
    2.304000000000D+05 1.154839992523D-07 2.821431795776D+00 1.322478055954D-07
    9.548763144084D-01 2.835625000000D+02 3.193618265877D-01-8.664289473863D-09
   -4.757341019492D-10 1.000000000000D+00 2.301000000000D+03 0.000000000000D+00
    2.000000000000D+00 0.000000000000D+00 5.122274160385D-09 7.300000000000D+01
    2.265720000000D+05 4.000000000000D+00
24 24  2 13 16  0  0.0-4.311045631766D-04-6.252776074689D-12 0.000000000000D+00
    9.000000000000D+01 8.625000000000D+00 4.968421240402D-09-2.011311019040D+00
    2.309679985046D-07 1.509750110563D-02 1.211464405060D-05 5.153731603622D+03
    2.304000000000D+05 2.160668373108D-07 6.642821442577D-01-7.264316082001D-08
    9.342023648897D-01 1.288125000000D+02 9.678808705461D-01-7.970689154054D-09
    9.678974596714D-11 1.000000000000D+00 2.301000000000D+03 0.000000000000D+00
    2.000000000000D+00 0.000000000000D+00 2.328306436539D-09 9.000000000000D+01
    2.232180000000D+05 4.000000000000D+00
15 24  2 13 16  0  0.0 1.273225061595D-04 3.979039320257D-12 0.000000000000D+00
    2.300000000000D+01-6.593750000000D+01 5.511300996380D-09-1.187549717641D+00
   -3.034248948097D-06 1.543941756245D-02 5.194917321205D-06 5.153601972580D+03
    2.304000000000D+05-7.450580596924D-09-4.374218552103D-01 3.483146429062D-07
    9.347140292655D-01 2.630000000000D+02 1.290926468223D+00-8.796794993250D-09
   -2.350097891010D-10 1.000000000000D+00 2.301000000000D+03 0.000000000000D+00
    2.000000000000D+00 0.000000000000D+00-1.024454832077D-08 2.300000000000D+01
    2.232180000000D+05 4.000000000000D+00
13 24  2 13 16  0  0.0 6.251931190491D-04 3.524291969370D-12 0.000000000000D+00
    2.800000000000D+01-7.625000000000D+01 4.513402287036D-09-5.185226922200D-01
   -3.919005393982D-06 7.791243260726D-03 7.592141628265D-06 5.153658905029D+03
    2.304000000000D+05-4.656612873077D-08-1.479565457954D-01 1.005828380585D-07
    9.713441974361D-01 2.406875000000D+02 9.401745494723D-01-8.241771874309D-09
   -3.660866775510D-10 1.000000000000D+00 2.301000000000D+03 0.000000000000D+00
    2.000000000000D+00 0.000000000000D+00-1.117587089539D-08 2.800000000000D+01
    2.232480000000D+05 4.000000000000D+00
10 24  2 13 16  0  0.0 2.672895789146D-07 2.046363078989D-12 0.000000000000D+00
    2.200000000000D+01 4.534375000000D+01 4.321608583773D-09 1.782256216822D+00
    2.326443791389D-06 9.300619363785D-03 6.442889571190D-06 5.153682516098D+03
    2.304000000000D+05-1.844018697739D-07-1.335769225887D+00-1.862645149231D-09
    9.822556294039D-01 2.672812500000D+02-2.376877559542D+00-8.154625387165D-09
    4.725196823414D-10 1.000000000000D+00 2.301000000000D+03 0.000000000000D+00
    2.000000000000D+00 6.300000000000D+01 2.328306436539D-09 2.200000000000D+01
    2.243580000000D+05 4.000000000000D+00
21 24  2 13 16  0  0.0 1.350664533675D-04-1.364242052659D-12 0.000000000000D+00
    2.900000000000D+01-3.084375000000D+01 4.311965324949D-09-2.722577325817D-01
   -1.786276698112D-06 2.530226693489D-02 1.169368624687D-05 5.153723501205D+03
    2.304000000000D+05 8.195638656616D-08-2.472898851649D+00-5.457550287247D-07
    9.620066853827D-01 1.613750000000D+02-6.294028593497D-01-8.269987335310D-09
   -9.143237995420D-11 1.000000000000D+00 2.301000000000D+03 0.000000000000D+00
    2.000000000000D+00 0.000000000000D+00-1.024454832077D-08 2.900000000000D+01
    2.264760000000D+05 4.000000000000D+00
 7 24  2 13 16  0  0.0-6.107194349170D-05-9.094947017730D-12 0.000000000000D+00
    3.000000000000D+01-6.093750000000D+00 4.503044712740D-09-3.056558198100D+00
   -4.731118679050D-07 1.794273301490D-02 1.301057636740D-05 5.153676155090D+03
    2.304000000000D+05 1.024454832080D-07 7.595088772790D-01-2.365559339520D-07
    9.504762620540D-01 1.215312500000D+02-2.151601354760D+00-7.691391805910D-09
    5.785955293980D-11 1.000000000000D+00 2.301000000000D+03 0.000000000000D+00
    2.000000000000D+00 0.000000000000D+00-1.117587089540D-08 3.000000000000D+01
    2.232180000000D+05 4.000000000000D+00
 6 24  2 13 16  0  0.0 4.085218533874D-04-1.477928890381D-11 0.000000000000D+00
    3.400000000000D+01 4.781250000000D+00 3.566934291416D-09-2.166347478302D+00
    2.570450305939D-07 3.146861330606D-03 1.165643334389D-05 5.153570383072D+03
    2.304000000000D+05-2.421438694000D-08-2.370350137569D+00 5.587935447693D-08
    9.898398531573D-01 1.735937500000D+02-7.732769142702D-01-7.628889202428D-09
    2.785830326729D-11 1.000000000000D+00 2.301000000000D+03 0.000000000000D+00
    2.000000000000D+00 0.000000000000D+00 3.725290298462D-09 3.400000000000D+01
    2.232180000000D+05 4.000000000000D+00
19 24  2 13 16  0  0.0 4.401560872793D-04 5.229594535194D-12 0.000000000000D+00
    9.700000000000D+01-5.768750000000D+01 4.489115561111D-09 1.862445266732D+00
   -2.948567271233D-06 9.475274244323D-03 6.249174475670D-06 5.153686820984D+03
    2.304000000000D+05 1.359730958939D-07 2.958843278419D+00 3.352761268616D-08
    9.698470265930D-01 2.627812500000D+02 2.481331645423D+00-8.153911071697D-09
   -5.971677315759D-10 1.000000000000D+00 2.301000000000D+03 0.000000000000D+00
    2.000000000000D+00 0.000000000000D+00-1.536682248116D-08 9.700000000000D+01
    2.232180000000D+05 4.000000000000D+00
17 24  2 13 16  0  0.0 7.171123288572D-04-1.136868377216D-12 0.000000000000D+00
    1.600000000000D+01-5.565625000000D+01 4.567333104900D-09-1.743833065532D-01
   -2.991408109665D-06 1.356445346028D-02 6.174668669701D-06 5.153668140411D+03
    2.304000000000D+05-1.788139343262D-07 2.914478941781D+00-7.450580596924D-08
    9.706642974813D-01 2.693125000000D+02-1.337076028663D+00-8.478924609815D-09
   -4.218032840856D-10 1.000000000000D+00 2.301000000000D+03 0.000000000000D+00
    2.000000000000D+00 0.000000000000D+00-1.117587089539D-08 1.600000000000D+01
    2.232180000000D+05 4.000000000000D+00
